sat11672
1 11672U 80005B   20046.81070119  .00000070  00000-0  49658-5 0  9993
2 11672  82.5129 240.3111 0015902 329.3748  30.6539 14.87985575147064
